ONEWEB-0560             
1 55145U 23004F   25142.46353155  .00000033  00000+0  50825-4 0  9994
2 55145  87.9155  53.1402 0001809  87.3847 272.7493 13.18686624118219
ONEWEB-0565             
1 55146U 23004G   25142.30544338  .00000027  00000+0  36457-4 0  9991
2 55146  87.9149  53.2331 0002310  91.5718 268.5679 13.18685302118184
ONEWEB-0567             
1 55147U 23004H   25142.45087393  .00000076  00000+0  16048-3 0  9998
2 55147  87.9149  53.1599 0002021  91.8871 268.2493 13.18685357118206
ONEWEB-0569             
1 55148U 23004J   25143.13118184 -.00000308  00000+0 -87923-3 0  9998
2 55148  87.8988  37.7173 0001911 111.8459 248.2874 13.13470207118971
ONEWEB-0570             
1 55149U 23004K   25142.51410729  .00000028  00000+0  38821-4 0  9991
2 55149  87.9149  53.1505 0002579  79.4388 280.7034 13.18684978118206
ONEWEB-0571             
1 55150U 23004L   25142.50777285 -.00000145  00000+0 -40085-3 0  9991
2 55150  87.9147  53.1594 0002575 108.0991 252.0422 13.18683882118216
ONEWEB-0572             
1 55151U 23004M   25142.82775512  .00000027  00000+0  35968-4 0  9990
2 55151  87.9060  83.5898 0002275  83.4576 276.6815 13.17649120116073
ONEWEB-0573             
1 55152U 23004N   25143.18434153  .00000064  00000+0  12949-3 0  9998
2 55152  87.9147  53.0314 0002674  93.0242 267.1197 13.18684583118292
